{
"type": "FeatureCollection",
"name": "roads_ar_points_จังหวัดสุพรรณบุรี",
"crs": { "type": "name", "properties": { "name": "urn:ogc:def:crs:OGC:1.3:CRS84" } },
"features": [
{ "type": "Feature", "properties": { "road_key": "0", "road_name": "ทางหลวงแผ่นดินหมายเลข 333", "road_no": "333", "aumpher": "จังหวัดสุพรรณบุรี", "office": "None", "branch_code": "0", "name_short": "ทล.", "price_new": 0, "price_old": 0, "width_m": 12, "pt_i": 0 }, "geometry": { "type": "Point", "coordinates": [ 99.638345728762886, 14.989191912716313 ] } },
{ "type": "Feature", "properties": { "road_key": "0", "road_name": "ทางหลวงแผ่นดินหมายเลข 333", "road_no": "333", "aumpher": "จังหวัดสุพรรณบุรี", "office": "None", "branch_code": "0", "name_short": "ทล.", "price_new": 0, "price_old": 0, "width_m": 12, "pt_i": 1 }, "geometry": { "type": "Point", "coordinates": [ 99.637957188749013, 14.988174890959822 ] } },
{ "type": "Feature", "properties": { "road_key": "0", "road_name": "ทางหลวงแผ่นดินหมายเลข 333", "road_no": "333", "aumpher": "จังหวัดสุพรรณบุรี", "office": "None", "branch_code": "0", "name_short": "ทล.", "price_new": 0, "price_old": 0, "width_m": 12, "pt_i": 2 }, "geometry": { "type": "Point", "coordinates": [ 99.637568652577556, 14.987157868306639 ] } },
{ "type": "Feature", "properties": { "road_key": "0", "road_name": "ทางหลวงแผ่นดินหมายเลข 333", "road_no": "333", "aumpher": "จังหวัดสุพรรณบุรี", "office": "None", "branch_code": "0", "name_short": "ทล.", "price_new": 0, "price_old": 0, "width_m": 12, "pt_i": 3 }, "geometry": { "type": "Point", "coordinates": [ 99.637180536155341, 14.986140694759227 ] } },
{ "type": "Feature", "properties": { "road_key": "0", "road_name": "ทางหลวงแผ่นดินหมายเลข 333", "road_no": "333", "aumpher": "จังหวัดสุพรรณบุรี", "office": "None", "branch_code": "0", "name_short": "ทล.", "price_new": 0, "price_old": 0, "width_m": 12, "pt_i": 4 }, "geometry": { "type": "Point", "coordinates": [ 99.636792628460881, 14.985123446423295 ] } },
{ "type": "Feature", "properties": { "road_key": "0", "road_name": "ทางหลวงแผ่นดินหมายเลข 333", "road_no": "333", "aumpher": "จังหวัดสุพรรณบุรี", "office": "None", "branch_code": "0", "name_short": "ทล.", "price_new": 0, "price_old": 0, "width_m": 12, "pt_i": 5 }, "geometry": { "type": "Point", "coordinates": [ 99.6365734077947, 14.984063271173898 ] } },
{ "type": "Feature", "properties": { "road_key": "0", "road_name": "ทางหลวงแผ่นดินหมายเลข 333", "road_no": "333", "aumpher": "จังหวัดสุพรรณบุรี", "office": "None", "branch_code": "0", "name_short": "ทล.", "price_new": 0, "price_old": 0, "width_m": 12, "pt_i": 6 }, "geometry": { "type": "Point", "coordinates": [ 99.63646371588257, 14.982983637799869 ] } },
{ "type": "Feature", "properties": { "road_key": "0", "road_name": "ทางหลวงแผ่นดินหมายเลข 333", "road_no": "333", "aumpher": "จังหวัดสุพรรณบุรี", "office": "None", "branch_code": "0", "name_short": "ทล.", "price_new": 0, "price_old": 0, "width_m": 12, "pt_i": 7 }, "geometry": { "type": "Point", "coordinates": [ 99.63635402529242, 14.981904004228488 ] } },
{ "type": "Feature", "properties": { "road_key": "0", "road_name": "ทางหลวงแผ่นดินหมายเลข 333", "road_no": "333", "aumpher": "จังหวัดสุพรรณบุรี", "office": "None", "branch_code": "0", "name_short": "ทล.", "price_new": 0, "price_old": 0, "width_m": 12, "pt_i": 8 }, "geometry": { "type": "Point", "coordinates": [ 99.636246528530265, 14.980824174412758 ] } },
{ "type": "Feature", "properties": { "road_key": "0", "road_name": "ทางหลวงแผ่นดินหมายเลข 333", "road_no": "333", "aumpher": "จังหวัดสุพรรณบุรี", "office": "None", "branch_code": "0", "name_short": "ทล.", "price_new": 0, "price_old": 0, "width_m": 12, "pt_i": 9 }, "geometry": { "type": "Point", "coordinates": [ 99.636151769511869, 14.979743205552186 ] } },
{ "type": "Feature", "properties": { "road_key": "0", "road_name": "ทางหลวงแผ่นดินหมายเลข 333", "road_no": "333", "aumpher": "จังหวัดสุพรรณบุรี", "office": "None", "branch_code": "0", "name_short": "ทล.", "price_new": 0, "price_old": 0, "width_m": 12, "pt_i": 10 }, "geometry": { "type": "Point", "coordinates": [ 99.636057011667674, 14.978662236513271 ] } },
{ "type": "Feature", "properties": { "road_key": "0", "road_name": "ทางหลวงแผ่นดินหมายเลข 333", "road_no": "333", "aumpher": "จังหวัดสุพรรณบุรี", "office": "None", "branch_code": "0", "name_short": "ทล.", "price_new": 0, "price_old": 0, "width_m": 12, "pt_i": 11 }, "geometry": { "type": "Point", "coordinates": [ 99.635979484877282, 14.977579991343177 ] } },
{ "type": "Feature", "properties": { "road_key": "0", "road_name": "ทางหลวงแผ่นดินหมายเลข 333", "road_no": "333", "aumpher": "จังหวัดสุพรรณบุรี", "office": "None", "branch_code": "0", "name_short": "ทล.", "price_new": 0, "price_old": 0, "width_m": 12, "pt_i": 12 }, "geometry": { "type": "Point", "coordinates": [ 99.635904702898074, 14.976497542822836 ] } },
{ "type": "Feature", "properties": { "road_key": "0", "road_name": "ทางหลวงแผ่นดินหมายเลข 333", "road_no": "333", "aumpher": "จังหวัดสุพรรณบุรี", "office": "None", "branch_code": "0", "name_short": "ทล.", "price_new": 0, "price_old": 0, "width_m": 12, "pt_i": 13 }, "geometry": { "type": "Point", "coordinates": [ 99.63587717423411, 14.975417690357206 ] } },
{ "type": "Feature", "properties": { "road_key": "0", "road_name": "ทางหลวงแผ่นดินหมายเลข 333", "road_no": "333", "aumpher": "จังหวัดสุพรรณบุรี", "office": "None", "branch_code": "0", "name_short": "ทล.", "price_new": 0, "price_old": 0, "width_m": 12, "pt_i": 14 }, "geometry": { "type": "Point", "coordinates": [ 99.636179619564572, 14.974378547115577 ] } },
{ "type": "Feature", "properties": { "road_key": "0", "road_name": "ทางหลวงแผ่นดินหมายเลข 333", "road_no": "333", "aumpher": "จังหวัดสุพรรณบุรี", "office": "None", "branch_code": "0", "name_short": "ทล.", "price_new": 0, "price_old": 0, "width_m": 12, "pt_i": 15 }, "geometry": { "type": "Point", "coordinates": [ 99.636567520511505, 14.973361302808673 ] } },
{ "type": "Feature", "properties": { "road_key": "0", "road_name": "ทางหลวงแผ่นดินหมายเลข 333", "road_no": "333", "aumpher": "จังหวัดสุพรรณบุรี", "office": "None", "branch_code": "0", "name_short": "ทล.", "price_new": 0, "price_old": 0, "width_m": 12, "pt_i": 16 }, "geometry": { "type": "Point", "coordinates": [ 99.636956484511131, 14.972344456401347 ] } },
{ "type": "Feature", "properties": { "road_key": "0", "road_name": "ทางหลวงแผ่นดินหมายเลข 333", "road_no": "333", "aumpher": "จังหวัดสุพรรณบุรี", "office": "None", "branch_code": "0", "name_short": "ทล.", "price_new": 0, "price_old": 0, "width_m": 12, "pt_i": 17 }, "geometry": { "type": "Point", "coordinates": [ 99.637369295274382, 14.971336520859101 ] } },
{ "type": "Feature", "properties": { "road_key": "0", "road_name": "ทางหลวงแผ่นดินหมายเลข 333", "road_no": "333", "aumpher": "จังหวัดสุพรรณบุรี", "office": "None", "branch_code": "0", "name_short": "ทล.", "price_new": 0, "price_old": 0, "width_m": 12, "pt_i": 18 }, "geometry": { "type": "Point", "coordinates": [ 99.637782102342456, 14.97032858463322 ] } },
{ "type": "Feature", "properties": { "road_key": "0", "road_name": "ทางหลวงแผ่นดินหมายเลข 333", "road_no": "333", "aumpher": "จังหวัดสุพรรณบุรี", "office": "None", "branch_code": "0", "name_short": "ทล.", "price_new": 0, "price_old": 0, "width_m": 12, "pt_i": 19 }, "geometry": { "type": "Point", "coordinates": [ 99.638192173090559, 14.969319617109891 ] } },
{ "type": "Feature", "properties": { "road_key": "0", "road_name": "ทางหลวงแผ่นดินหมายเลข 333", "road_no": "333", "aumpher": "จังหวัดสุพรรณบุรี", "office": "None", "branch_code": "0", "name_short": "ทล.", "price_new": 0, "price_old": 0, "width_m": 12, "pt_i": 20 }, "geometry": { "type": "Point", "coordinates": [ 99.638586622770461, 14.96830475878623 ] } },
{ "type": "Feature", "properties": { "road_key": "0", "road_name": "ทางหลวงแผ่นดินหมายเลข 333", "road_no": "333", "aumpher": "จังหวัดสุพรรณบุรี", "office": "None", "branch_code": "0", "name_short": "ทล.", "price_new": 0, "price_old": 0, "width_m": 12, "pt_i": 21 }, "geometry": { "type": "Point", "coordinates": [ 99.638981068908066, 14.967289899837356 ] } },
{ "type": "Feature", "properties": { "road_key": "0", "road_name": "ทางหลวงแผ่นดินหมายเลข 333", "road_no": "333", "aumpher": "จังหวัดสุพรรณบุรี", "office": "None", "branch_code": "0", "name_short": "ทล.", "price_new": 0, "price_old": 0, "width_m": 12, "pt_i": 22 }, "geometry": { "type": "Point", "coordinates": [ 99.639375511503786, 14.966275040263419 ] } },
{ "type": "Feature", "properties": { "road_key": "0", "road_name": "ทางหลวงแผ่นดินหมายเลข 333", "road_no": "333", "aumpher": "จังหวัดสุพรรณบุรี", "office": "None", "branch_code": "0", "name_short": "ทล.", "price_new": 0, "price_old": 0, "width_m": 12, "pt_i": 23 }, "geometry": { "type": "Point", "coordinates": [ 99.639776988533683, 14.965262813782083 ] } },
{ "type": "Feature", "properties": { "road_key": "0", "road_name": "ทางหลวงแผ่นดินหมายเลข 333", "road_no": "333", "aumpher": "จังหวัดสุพรรณบุรี", "office": "None", "branch_code": "0", "name_short": "ทล.", "price_new": 0, "price_old": 0, "width_m": 12, "pt_i": 24 }, "geometry": { "type": "Point", "coordinates": [ 99.640184318358521, 14.964252778205672 ] } },
{ "type": "Feature", "properties": { "road_key": "0", "road_name": "ทางหลวงแผ่นดินหมายเลข 333", "road_no": "333", "aumpher": "จังหวัดสุพรรณบุรี", "office": "None", "branch_code": "0", "name_short": "ทล.", "price_new": 0, "price_old": 0, "width_m": 12, "pt_i": 25 }, "geometry": { "type": "Point", "coordinates": [ 99.640591644535789, 14.96324274196428 ] } },
{ "type": "Feature", "properties": { "road_key": "0", "road_name": "ทางหลวงแผ่นดินหมายเลข 333", "road_no": "333", "aumpher": "จังหวัดสุพรรณบุรี", "office": "None", "branch_code": "0", "name_short": "ทล.", "price_new": 0, "price_old": 0, "width_m": 12, "pt_i": 26 }, "geometry": { "type": "Point", "coordinates": [ 99.640998967065855, 14.962232705058064 ] } },
{ "type": "Feature", "properties": { "road_key": "0", "road_name": "ทางหลวงแผ่นดินหมายเลข 333", "road_no": "333", "aumpher": "จังหวัดสุพรรณบุรี", "office": "None", "branch_code": "0", "name_short": "ทล.", "price_new": 0, "price_old": 0, "width_m": 12, "pt_i": 27 }, "geometry": { "type": "Point", "coordinates": [ 99.641407555384163, 14.961223155139935 ] } },
{ "type": "Feature", "properties": { "road_key": "0", "road_name": "ทางหลวงแผ่นดินหมายเลข 333", "road_no": "333", "aumpher": "จังหวัดสุพรรณบุรี", "office": "None", "branch_code": "0", "name_short": "ทล.", "price_new": 0, "price_old": 0, "width_m": 12, "pt_i": 28 }, "geometry": { "type": "Point", "coordinates": [ 99.641820431166209, 14.960215252984629 ] } },
{ "type": "Feature", "properties": { "road_key": "0", "road_name": "ทางหลวงแผ่นดินหมายเลข 333", "road_no": "333", "aumpher": "จังหวัดสุพรรณบุรี", "office": "None", "branch_code": "0", "name_short": "ทล.", "price_new": 0, "price_old": 0, "width_m": 12, "pt_i": 29 }, "geometry": { "type": "Point", "coordinates": [ 99.642233303256759, 14.959207350147118 ] } },
{ "type": "Feature", "properties": { "road_key": "0", "road_name": "ทางหลวงแผ่นดินหมายเลข 333", "road_no": "333", "aumpher": "จังหวัดสุพรรณบุรี", "office": "None", "branch_code": "0", "name_short": "ทล.", "price_new": 0, "price_old": 0, "width_m": 12, "pt_i": 30 }, "geometry": { "type": "Point", "coordinates": [ 99.642764270513737, 14.958260471138269 ] } },
{ "type": "Feature", "properties": { "road_key": "0", "road_name": "ทางหลวงแผ่นดินหมายเลข 333", "road_no": "333", "aumpher": "จังหวัดสุพรรณบุรี", "office": "None", "branch_code": "0", "name_short": "ทล.", "price_new": 0, "price_old": 0, "width_m": 12, "pt_i": 31 }, "geometry": { "type": "Point", "coordinates": [ 99.643392592186373, 14.957363898589239 ] } },
{ "type": "Feature", "properties": { "road_key": "0", "road_name": "ทางหลวงแผ่นดินหมายเลข 333", "road_no": "333", "aumpher": "จังหวัดสุพรรณบุรี", "office": "None", "branch_code": "0", "name_short": "ทล.", "price_new": 0, "price_old": 0, "width_m": 12, "pt_i": 32 }, "geometry": { "type": "Point", "coordinates": [ 99.644003663990219, 14.95645613043571 ] } },
{ "type": "Feature", "properties": { "road_key": "0", "road_name": "ทางหลวงแผ่นดินหมายเลข 333", "road_no": "333", "aumpher": "จังหวัดสุพรรณบุรี", "office": "None", "branch_code": "0", "name_short": "ทล.", "price_new": 0, "price_old": 0, "width_m": 12, "pt_i": 33 }, "geometry": { "type": "Point", "coordinates": [ 99.644614596689237, 14.955548273760487 ] } },
{ "type": "Feature", "properties": { "road_key": "0", "road_name": "ทางหลวงแผ่นดินหมายเลข 333", "road_no": "333", "aumpher": "จังหวัดสุพรรณบุรี", "office": "None", "branch_code": "0", "name_short": "ทล.", "price_new": 0, "price_old": 0, "width_m": 12, "pt_i": 34 }, "geometry": { "type": "Point", "coordinates": [ 99.645237819075618, 14.954648494837148 ] } },
{ "type": "Feature", "properties": { "road_key": "0", "road_name": "ทางหลวงแผ่นดินหมายเลข 333", "road_no": "333", "aumpher": "จังหวัดสุพรรณบุรี", "office": "None", "branch_code": "0", "name_short": "ทล.", "price_new": 0, "price_old": 0, "width_m": 12, "pt_i": 35 }, "geometry": { "type": "Point", "coordinates": [ 99.646024753319963, 14.953893123022533 ] } },
{ "type": "Feature", "properties": { "road_key": "0", "road_name": "ทางหลวงแผ่นดินหมายเลข 333", "road_no": "333", "aumpher": "จังหวัดสุพรรณบุรี", "office": "None", "branch_code": "0", "name_short": "ทล.", "price_new": 0, "price_old": 0, "width_m": 12, "pt_i": 36 }, "geometry": { "type": "Point", "coordinates": [ 99.646964667452394, 14.953308353367113 ] } },
{ "type": "Feature", "properties": { "road_key": "0", "road_name": "ทางหลวงแผ่นดินหมายเลข 333", "road_no": "333", "aumpher": "จังหวัดสุพรรณบุรี", "office": "None", "branch_code": "0", "name_short": "ทล.", "price_new": 0, "price_old": 0, "width_m": 12, "pt_i": 37 }, "geometry": { "type": "Point", "coordinates": [ 99.64790457639559, 14.952723580017025 ] } },
{ "type": "Feature", "properties": { "road_key": "0", "road_name": "ทางหลวงแผ่นดินหมายเลข 333", "road_no": "333", "aumpher": "จังหวัดสุพรรณบุรี", "office": "None", "branch_code": "0", "name_short": "ทล.", "price_new": 0, "price_old": 0, "width_m": 12, "pt_i": 38 }, "geometry": { "type": "Point", "coordinates": [ 99.648843117979851, 14.952136743442882 ] } },
{ "type": "Feature", "properties": { "road_key": "0", "road_name": "ทางหลวงแผ่นดินหมายเลข 333", "road_no": "333", "aumpher": "จังหวัดสุพรรณบุรี", "office": "None", "branch_code": "0", "name_short": "ทล.", "price_new": 0, "price_old": 0, "width_m": 12, "pt_i": 39 }, "geometry": { "type": "Point", "coordinates": [ 99.649780386234269, 14.951547985850075 ] } },
{ "type": "Feature", "properties": { "road_key": "0", "road_name": "ทางหลวงแผ่นดินหมายเลข 333", "road_no": "333", "aumpher": "จังหวัดสุพรรณบุรี", "office": "None", "branch_code": "0", "name_short": "ทล.", "price_new": 0, "price_old": 0, "width_m": 12, "pt_i": 40 }, "geometry": { "type": "Point", "coordinates": [ 99.650717649281219, 14.950959224586041 ] } },
{ "type": "Feature", "properties": { "road_key": "0", "road_name": "ทางหลวงแผ่นดินหมายเลข 333", "road_no": "333", "aumpher": "จังหวัดสุพรรณบุรี", "office": "None", "branch_code": "0", "name_short": "ทล.", "price_new": 0, "price_old": 0, "width_m": 12, "pt_i": 41 }, "geometry": { "type": "Point", "coordinates": [ 99.651654907120758, 14.950370459651277 ] } },
{ "type": "Feature", "properties": { "road_key": "0", "road_name": "ทางหลวงแผ่นดินหมายเลข 333", "road_no": "333", "aumpher": "จังหวัดสุพรรณบุรี", "office": "None", "branch_code": "0", "name_short": "ทล.", "price_new": 0, "price_old": 0, "width_m": 12, "pt_i": 42 }, "geometry": { "type": "Point", "coordinates": [ 99.652592629843312, 14.949782399252442 ] } },
{ "type": "Feature", "properties": { "road_key": "0", "road_name": "ทางหลวงแผ่นดินหมายเลข 333", "road_no": "333", "aumpher": "จังหวัดสุพรรณบุรี", "office": "None", "branch_code": "0", "name_short": "ทล.", "price_new": 0, "price_old": 0, "width_m": 12, "pt_i": 43 }, "geometry": { "type": "Point", "coordinates": [ 99.653530551005687, 14.949194641973932 ] } },
{ "type": "Feature", "properties": { "road_key": "0", "road_name": "ทางหลวงแผ่นดินหมายเลข 333", "road_no": "333", "aumpher": "จังหวัดสุพรรณบุรี", "office": "None", "branch_code": "0", "name_short": "ทล.", "price_new": 0, "price_old": 0, "width_m": 12, "pt_i": 44 }, "geometry": { "type": "Point", "coordinates": [ 99.65446846696554, 14.948606881020481 ] } },
{ "type": "Feature", "properties": { "road_key": "0", "road_name": "ทางหลวงแผ่นดินหมายเลข 333", "road_no": "333", "aumpher": "จังหวัดสุพรรณบุรี", "office": "None", "branch_code": "0", "name_short": "ทล.", "price_new": 0, "price_old": 0, "width_m": 12, "pt_i": 45 }, "geometry": { "type": "Point", "coordinates": [ 99.65540637772294, 14.948019116392556 ] } }
]
}
