{
"type": "FeatureCollection",
"name": "roads_ar_points_เมือง",
"crs": { "type": "name", "properties": { "name": "urn:ogc:def:crs:OGC:1.3:CRS84" } },
"features": [
{ "type": "Feature", "properties": { "road_key": "61000000ST372", "road_name": "ถนนในโครงการบ้านแกรนด์อุทัย3", "road_no": "0", "aumpher": "เมือง", "office": "สาขาเมือง", "branch_code": "61000000", "name_short": "None", "price_new": 7850, "price_old": 400, "width_m": 6, "pt_i": 0 }, "geometry": { "type": "Point", "coordinates": [ 100.028081945721581, 15.353860146787456 ] } },
{ "type": "Feature", "properties": { "road_key": "61000000ST372", "road_name": "ถนนในโครงการบ้านแกรนด์อุทัย3", "road_no": "0", "aumpher": "เมือง", "office": "สาขาเมือง", "branch_code": "61000000", "name_short": "None", "price_new": 7850, "price_old": 400, "width_m": 6, "pt_i": 1 }, "geometry": { "type": "Point", "coordinates": [ 100.028745570431937, 15.354006797737641 ] } }
]
}
