{
"type": "FeatureCollection",
"name": "roads_ar_points_หนองขาหย่าง",
"crs": { "type": "name", "properties": { "name": "urn:ogc:def:crs:OGC:1.3:CRS84" } },
"features": [
{ "type": "Feature", "properties": { "road_key": "61000000ST376", "road_name": "ถนนในโครงการ (ตำบลท่าโพ) (2)", "road_no": "0", "aumpher": "หนองขาหย่าง", "office": "สาขาเมือง", "branch_code": "61000000", "name_short": "None", "price_new": 6500, "price_old": 400, "width_m": 6, "pt_i": 0 }, "geometry": { "type": "Point", "coordinates": [ 99.999516008019157, 15.364450772803393 ] } },
{ "type": "Feature", "properties": { "road_key": "61000000ST376", "road_name": "ถนนในโครงการ (ตำบลท่าโพ) (2)", "road_no": "0", "aumpher": "หนองขาหย่าง", "office": "สาขาเมือง", "branch_code": "61000000", "name_short": "None", "price_new": 6500, "price_old": 400, "width_m": 6, "pt_i": 1 }, "geometry": { "type": "Point", "coordinates": [ 99.999590961424872, 15.365222646312017 ] } }
]
}
