{
"type": "FeatureCollection",
"name": "roads_ar_points_หนองฉาง",
"crs": { "type": "name", "properties": { "name": "urn:ogc:def:crs:OGC:1.3:CRS84" } },
"features": [
{ "type": "Feature", "properties": { "road_key": "61020000ST103", "road_name": "ถนนสายแยก ทล.333-วัดหนองขุนชาติ", "road_no": "0", "aumpher": "หนองฉาง", "office": "สาขาหนองฉาง", "branch_code": "61020000", "name_short": "None", "price_new": 800, "price_old": 500, "width_m": 6, "pt_i": 0 }, "geometry": { "type": "Point", "coordinates": [ 99.832440504865588, 15.38149096232349 ] } },
{ "type": "Feature", "properties": { "road_key": "61020000ST103", "road_name": "ถนนสายแยก ทล.333-วัดหนองขุนชาติ", "road_no": "0", "aumpher": "หนองฉาง", "office": "สาขาหนองฉาง", "branch_code": "61020000", "name_short": "None", "price_new": 800, "price_old": 500, "width_m": 6, "pt_i": 1 }, "geometry": { "type": "Point", "coordinates": [ 99.832919244461451, 15.382462916017053 ] } },
{ "type": "Feature", "properties": { "road_key": "61020000ST103", "road_name": "ถนนสายแยก ทล.333-วัดหนองขุนชาติ", "road_no": "0", "aumpher": "หนองฉาง", "office": "สาขาหนองฉาง", "branch_code": "61020000", "name_short": "None", "price_new": 800, "price_old": 500, "width_m": 6, "pt_i": 2 }, "geometry": { "type": "Point", "coordinates": [ 99.833611083022006, 15.383315115863706 ] } },
{ "type": "Feature", "properties": { "road_key": "61020000ST103", "road_name": "ถนนสายแยก ทล.333-วัดหนองขุนชาติ", "road_no": "0", "aumpher": "หนองฉาง", "office": "สาขาหนองฉาง", "branch_code": "61020000", "name_short": "None", "price_new": 800, "price_old": 500, "width_m": 6, "pt_i": 3 }, "geometry": { "type": "Point", "coordinates": [ 99.833911792769769, 15.384348697288786 ] } },
{ "type": "Feature", "properties": { "road_key": "61020000ST103", "road_name": "ถนนสายแยก ทล.333-วัดหนองขุนชาติ", "road_no": "0", "aumpher": "หนองฉาง", "office": "สาขาหนองฉาง", "branch_code": "61020000", "name_short": "None", "price_new": 800, "price_old": 500, "width_m": 6, "pt_i": 4 }, "geometry": { "type": "Point", "coordinates": [ 99.834485470110039, 15.385211383994211 ] } },
{ "type": "Feature", "properties": { "road_key": "61020000ST103", "road_name": "ถนนสายแยก ทล.333-วัดหนองขุนชาติ", "road_no": "0", "aumpher": "หนองฉาง", "office": "สาขาหนองฉาง", "branch_code": "61020000", "name_short": "None", "price_new": 800, "price_old": 500, "width_m": 6, "pt_i": 5 }, "geometry": { "type": "Point", "coordinates": [ 99.834755902601799, 15.386263975582043 ] } },
{ "type": "Feature", "properties": { "road_key": "61020000ST103", "road_name": "ถนนสายแยก ทล.333-วัดหนองขุนชาติ", "road_no": "0", "aumpher": "หนองฉาง", "office": "สาขาหนองฉาง", "branch_code": "61020000", "name_short": "None", "price_new": 800, "price_old": 500, "width_m": 6, "pt_i": 6 }, "geometry": { "type": "Point", "coordinates": [ 99.835023772294036, 15.387317187564751 ] } },
{ "type": "Feature", "properties": { "road_key": "61020000ST103", "road_name": "ถนนสายแยก ทล.333-วัดหนองขุนชาติ", "road_no": "0", "aumpher": "หนองฉาง", "office": "สาขาหนองฉาง", "branch_code": "61020000", "name_short": "None", "price_new": 800, "price_old": 500, "width_m": 6, "pt_i": 7 }, "geometry": { "type": "Point", "coordinates": [ 99.835266502457472, 15.388376111134802 ] } },
{ "type": "Feature", "properties": { "road_key": "61020000ST103", "road_name": "ถนนสายแยก ทล.333-วัดหนองขุนชาติ", "road_no": "0", "aumpher": "หนองฉาง", "office": "สาขาหนองฉาง", "branch_code": "61020000", "name_short": "None", "price_new": 800, "price_old": 500, "width_m": 6, "pt_i": 8 }, "geometry": { "type": "Point", "coordinates": [ 99.835478966904361, 15.389441028024894 ] } },
{ "type": "Feature", "properties": { "road_key": "61020000ST103", "road_name": "ถนนสายแยก ทล.333-วัดหนองขุนชาติ", "road_no": "0", "aumpher": "หนองฉาง", "office": "สาขาหนองฉาง", "branch_code": "61020000", "name_short": "None", "price_new": 800, "price_old": 500, "width_m": 6, "pt_i": 9 }, "geometry": { "type": "Point", "coordinates": [ 99.835554173846802, 15.390517401406953 ] } },
{ "type": "Feature", "properties": { "road_key": "61020000ST103", "road_name": "ถนนสายแยก ทล.333-วัดหนองขุนชาติ", "road_no": "0", "aumpher": "หนองฉาง", "office": "สาขาหนองฉาง", "branch_code": "61020000", "name_short": "None", "price_new": 800, "price_old": 500, "width_m": 6, "pt_i": 10 }, "geometry": { "type": "Point", "coordinates": [ 99.836307460046086, 15.390886468068526 ] } }
]
}
